[{"OBJECT_NAME":"TOMORROW-S1","OBJECT_ID":"2024-149M","EPOCH":"2026-03-09T17:23:34.533600","MEAN_MOTION":15.31198363,"ECCENTRICITY":0.00018188,"INCLINATION":97.3791,"RA_OF_ASC_NODE":149.6044,"ARG_OF_PERICENTER":207.204,"MEAN_ANOMALY":152.9106,"EPHEMERIS_TYPE":0,"CLASSIFICATION_TYPE":"U","NORAD_CAT_ID":60479,"ELEMENT_SET_NO":999,"REV_AT_EPOCH":8686,"BSTAR":0.0002885603,"MEAN_MOTION_DOT":8.62e-5,"MEAN_MOTION_DDOT":0},{"OBJECT_NAME":"STARLINK-33577","OBJECT_ID":"2025-015E","EPOCH":"2026-03-09T22:33:41.447520","MEAN_MOTION":15.30212007,"ECCENTRICITY":0.00039035,"INCLINATION":53.1586,"RA_OF_ASC_NODE":320.9972,"ARG_OF_PERICENTER":166.1901,"MEAN_ANOMALY":193.9208,"EPHEMERIS_TYPE":0,"CLASSIFICATION_TYPE":"U","NORAD_CAT_ID":62762,"ELEMENT_SET_NO":999,"REV_AT_EPOCH":6452,"BSTAR":0.00073719694,"MEAN_MOTION_DOT":0.00021549,"MEAN_MOTION_DDOT":0}]
